{
  "type": "FeatureCollection",
  "features": [
    {
      "type": "Feature",
      "properties": {
        "norad_id": 66684,
        "name": "TRANSPORTER-15U",
        "group": "last-30-days",
        "lat": -76.90041412342593,
        "lon": 107.28333564851499,
        "alt_km": 519.3494970891506,
        "timestamp": "2025-12-27T13:34:48.005973+00:00",
        "meta_object_name": "TRANSPORTER-15U",
        "meta_object_id": "2025-276U",
        "meta_epoch": "2025-12-27T06:00:55.874880",
        "meta_mean_motion": 15.17430928,
        "meta_eccentricity": 0.00047035,
        "meta_inclination": 97.4467,
        "meta_ra_of_asc_node": 72.7733,
        "meta_arg_of_pericenter": 221.1081,
        "meta_mean_anomaly": 138.9798,
        "meta_ephemeris_type": 0,
        "meta_classification_type": "U",
        "meta_norad_cat_id": 66684,
        "meta_element_set_no": 999,
        "meta_rev_at_epoch": 432,
        "meta_bstar": 0.00065642839,
        "meta_mean_motion_dot": 0.00013081,
        "meta_mean_motion_ddot": 0,
        "tle_line1": "1 66684U 25276U   25361.25064670  .00013081  00000+0  65643-3 0  9998",
        "tle_line2": "2 66684  97.4467  72.7733 0004703 221.1081 138.9798 15.17430928  4321"
      },
      "geometry": {
        "type": "Point",
        "coordinates": [
          107.28333564851499,
          -76.90041412342593
        ]
      }
    },
    {
      "type": "Feature",
      "properties": {
        "norad_id": 66685,
        "name": "TRANSPORTER-15V",
        "group": "last-30-days",
        "lat": -55.687805992690066,
        "lon": 84.12334053276417,
        "alt_km": 496.7790382284893,
        "timestamp": "2025-12-27T13:34:48.005985+00:00",
        "meta_object_name": "TRANSPORTER-15V",
        "meta_object_id": "2025-276V",
        "meta_epoch": "2025-12-27T02:47:35.884320",
        "meta_mean_motion": 15.21953501,
        "meta_eccentricity": 0.00085593,
        "meta_inclination": 97.4444,
        "meta_ra_of_asc_node": 72.6316,
        "meta_arg_of_pericenter": 36.5472,
        "meta_mean_anomaly": 323.6347,
        "meta_ephemeris_type": 0,
        "meta_classification_type": "U",
        "meta_norad_cat_id": 66685,
        "meta_element_set_no": 999,
        "meta_rev_at_epoch": 430,
        "meta_bstar": 0.15371794,
        "meta_mean_motion_dot": 0.03971994,
        "meta_mean_motion_ddot": 0,
        "tle_line1": "1 66685U 25276V   25361.11638755  .03971994  00000+0  15372+0 0  9994",
        "tle_line2": "2 66685  97.4444  72.6316 0008559  36.5472 323.6347 15.21953501  4301"
      },
      "geometry": {
        "type": "Point",
        "coordinates": [
          84.12334053276417,
          -55.687805992690066
        ]
      }
    },
    {
      "type": "Feature",
      "properties": {
        "norad_id": 66686,
        "name": "TRANSPORTER-15W",
        "group": "last-30-days",
        "lat": -79.39540723358867,
        "lon": -151.23113635209657,
        "alt_km": 519.7931757119759,
        "timestamp": "2025-12-27T13:34:48.005995+00:00",
        "meta_object_name": "TRANSPORTER-15W",
        "meta_object_id": "2025-276W",
        "meta_epoch": "2025-12-27T06:05:40.821216",
        "meta_mean_motion": 15.1707514,
        "meta_eccentricity": 0.00042925,
        "meta_inclination": 97.4447,
        "meta_ra_of_asc_node": 72.762,
        "meta_arg_of_pericenter": 222.3283,
        "meta_mean_anomaly": 137.762,
        "meta_ephemeris_type": 0,
        "meta_classification_type": "U",
        "meta_norad_cat_id": 66686,
        "meta_element_set_no": 999,
        "meta_rev_at_epoch": 432,
        "meta_bstar": 0.00063835583,
        "meta_mean_motion_dot": 0.00012589,
        "meta_mean_motion_ddot": 0,
        "tle_line1": "1 66686U 25276W   25361.25394469  .00012589  00000+0  63836-3 0  9996",
        "tle_line2": "2 66686  97.4447  72.7620 0004292 222.3283 137.7620 15.17075140  4328"
      },
      "geometry": {
        "type": "Point",
        "coordinates": [
          -151.23113635209657,
          -79.39540723358867
        ]
      }
    },
    {
      "type": "Feature",
      "properties": {
        "norad_id": 66687,
        "name": "TRANSPORTER-15X",
        "group": "last-30-days",
        "lat": -47.99402437232101,
        "lon": -115.31302748524118,
        "alt_km": 527.8022809931426,
        "timestamp": "2025-12-27T13:34:48.006010+00:00",
        "meta_object_name": "TRANSPORTER-15X",
        "meta_object_id": "2025-276X",
        "meta_epoch": "2025-12-27T04:39:35.070624",
        "meta_mean_motion": 15.16821541,
        "meta_eccentricity": 0.00080866,
        "meta_inclination": 97.4384,
        "meta_ra_of_asc_node": 72.6637,
        "meta_arg_of_pericenter": 40.1556,
        "meta_mean_anomaly": 320.0274,
        "meta_ephemeris_type": 0,
        "meta_classification_type": "U",
        "meta_norad_cat_id": 66687,
        "meta_element_set_no": 999,
        "meta_rev_at_epoch": 431,
        "meta_bstar": 0.00078014896,
        "meta_mean_motion_dot": 0.00015303,
        "meta_mean_motion_ddot": 0,
        "tle_line1": "1 66687U 25276X   25361.19415591  .00015303  00000+0  78015-3 0  9992",
        "tle_line2": "2 66687  97.4384  72.6637 0008086  40.1556 320.0274 15.16821541  4314"
      },
      "geometry": {
        "type": "Point",
        "coordinates": [
          -115.31302748524118,
          -47.99402437232101
        ]
      }
    },
    {
      "type": "Feature",
      "properties": {
        "norad_id": 66688,
        "name": "TRANSPORTER-15Y",
        "group": "last-30-days",
        "lat": -82.41763456229886,
        "lon": 173.94280284979573,
        "alt_km": 519.8873545513561,
        "timestamp": "2025-12-27T13:34:48.006021+00:00",
        "meta_object_name": "TRANSPORTER-15Y",
        "meta_object_id": "2025-276Y",
        "meta_epoch": "2025-12-27T06:04:04.624320",
        "meta_mean_motion": 15.17146867,
        "meta_eccentricity": 0.00038973,
        "meta_inclination": 97.4425,
        "meta_ra_of_asc_node": 72.7557,
        "meta_arg_of_pericenter": 225.7029,
        "meta_mean_anomaly": 134.3885,
        "meta_ephemeris_type": 0,
        "meta_classification_type": "U",
        "meta_norad_cat_id": 66688,
        "meta_element_set_no": 999,
        "meta_rev_at_epoch": 432,
        "meta_bstar": 0.00043546899,
        "meta_mean_motion_dot": 8.579e-05,
        "meta_mean_motion_ddot": 0,
        "tle_line1": "1 66688U 25276Y   25361.25283130  .00008579  00000+0  43547-3 0  9991",
        "tle_line2": "2 66688  97.4425  72.7557 0003897 225.7029 134.3885 15.17146867  4321"
      },
      "geometry": {
        "type": "Point",
        "coordinates": [
          173.94280284979573,
          -82.41763456229886
        ]
      }
    },
    {
      "type": "Feature",
      "properties": {
        "norad_id": 66689,
        "name": "TRANSPORTER-15Z",
        "group": "last-30-days",
        "lat": -70.02259462661127,
        "lon": 94.13716775169287,
        "alt_km": 520.9769279662514,
        "timestamp": "2025-12-27T13:34:48.006030+00:00",
        "meta_object_name": "TRANSPORTER-15Z",
        "meta_object_id": "2025-276Z",
        "meta_epoch": "2025-12-27T04:23:50.395488",
        "meta_mean_motion": 15.17232602,
        "meta_eccentricity": 0.00014389,
        "meta_inclination": 97.4407,
        "meta_ra_of_asc_node": 72.6913,
        "meta_arg_of_pericenter": 231.4612,
        "meta_mean_anomaly": 128.6493,
        "meta_ephemeris_type": 0,
        "meta_classification_type": "U",
        "meta_norad_cat_id": 66689,
        "meta_element_set_no": 999,
        "meta_rev_at_epoch": 431,
        "meta_bstar": 0.00033996545,
        "meta_mean_motion_dot": 6.697e-05,
        "meta_mean_motion_ddot": 0,
        "tle_line1": "1 66689U 25276Z   25361.18322217  .00006697  00000+0  33997-3 0  9991",
        "tle_line2": "2 66689  97.4407  72.6913 0001438 231.4612 128.6493 15.17232602  4311"
      },
      "geometry": {
        "type": "Point",
        "coordinates": [
          94.13716775169287,
          -70.02259462661127
        ]
      }
    },
    {
      "type": "Feature",
      "properties": {
        "norad_id": 66690,
        "name": "TRANSPORTER-15AA",
        "group": "last-30-days",
        "lat": -82.2458791571104,
        "lon": 179.41012266287666,
        "alt_km": 520.0153261467904,
        "timestamp": "2025-12-27T13:34:48.006040+00:00",
        "meta_object_name": "TRANSPORTER-15AA",
        "meta_object_id": "2025-276AA",
        "meta_epoch": "2025-12-27T06:04:15.981600",
        "meta_mean_motion": 15.17115545,
        "meta_eccentricity": 0.00037747,
        "meta_inclination": 97.4386,
        "meta_ra_of_asc_node": 72.742,
        "meta_arg_of_pericenter": 225.7475,
        "meta_mean_anomaly": 134.3449,
        "meta_ephemeris_type": 0,
        "meta_classification_type": "U",
        "meta_norad_cat_id": 66690,
        "meta_element_set_no": 999,
        "meta_rev_at_epoch": 432,
        "meta_bstar": 0.00050178123,
        "meta_mean_motion_dot": 9.889e-05,
        "meta_mean_motion_ddot": 0,
        "tle_line1": "1 66690U 25276AA  25361.25296275  .00009889  00000+0  50178-3 0  9991",
        "tle_line2": "2 66690  97.4386  72.7420 0003774 225.7475 134.3449 15.17115545  4323"
      },
      "geometry": {
        "type": "Point",
        "coordinates": [
          179.41012266287666,
          -82.2458791571104
        ]
      }
    }
  ]
}